{"type": "FeatureCollection", "features": [ {"type": "Feature", "properties": {"norad_id": 66727, "name": "FLOCK 4H-24", "group": "last-30-days", "lat": 0.6642640206264069, "lon": -108.21432782697441, "alt_km": 516.0286749761644, "timestamp": "2025-12-26T03:50:10.806930+00:00", "meta": {"OBJECT_NAME": "FLOCK 4H-24", "OBJECT_ID": "2025-276BP", "EPOCH": "2025-12-25T17:33:09.199872", "MEAN_MOTION": 15.1736122, "ECCENTRICITY": 0.0002884, "INCLINATION": 97.4435, "RA_OF_ASC_NODE": 71.2778, "ARG_OF_PERICENTER": 247.8142, "MEAN_ANOMALY": 112.2785, "EPHEMERIS_TYPE": 0, "CLASSIFICATION_TYPE": "U", "NORAD_CAT_ID": 66727, "ELEMENT_SET_NO": 999, "REV_AT_EPOCH": 409, "BSTAR": 0.00030268, "MEAN_MOTION_DOT": 5.977e-05, "MEAN_MOTION_DDOT": 0}, "tle": {"line1": "1 66727U 25276BP  25359.73135648  .00005977  00000+0  30268-3 0  9990", "line2": "2 66727  97.4435  71.2778 0002884 247.8142 112.2785 15.17361220  4091"}}, "geometry": {"type": "Point", "coordinates": [-108.21432782697441, 0.6642640206264069]}}, {"type": "Feature", "properties": {"norad_id": 66728, "name": "FLOCK 4H-25", "group": "last-30-days", "lat": -81.8620612857954, "lon": -174.31218437653337, "alt_km": 519.5696326169418, "timestamp": "2025-12-26T03:50:10.806940+00:00", "meta": {"OBJECT_NAME": "FLOCK 4H-25", "OBJECT_ID": "2025-276BQ", "EPOCH": "2025-12-25T17:10:28.320384", "MEAN_MOTION": 15.18247547, "ECCENTRICITY": 0.0001753, "INCLINATION": 97.4392, "RA_OF_ASC_NODE": 71.2806, "ARG_OF_PERICENTER": 114.9526, "MEAN_ANOMALY": 245.189, "EPHEMERIS_TYPE": 0, "CLASSIFICATION_TYPE": "U", "NORAD_CAT_ID": 66728, "ELEMENT_SET_NO": 999, "REV_AT_EPOCH": 337, "BSTAR": 0.00028641, "MEAN_MOTION_DOT": 5.798e-05, "MEAN_MOTION_DDOT": 0}, "tle": {"line1": "1 66728U 25276BQ  25359.71560556  .00005798  00000+0  28641-3 0  9992", "line2": "2 66728  97.4392  71.2806 0001753 114.9526 245.1890 15.18247547  3379"}}, "geometry": {"type": "Point", "coordinates": [-174.31218437653337, -81.8620612857954]}}, {"type": "Feature", "properties": {"norad_id": 66729, "name": "FLOCK 4H-26", "group": "last-30-days", "lat": 19.91100321957258, "lon": -105.61637381520376, "alt_km": 514.322158585599, "timestamp": "2025-12-26T03:50:10.806952+00:00", "meta": {"OBJECT_NAME": "FLOCK 4H-26", "OBJECT_ID": "2025-276BR", "EPOCH": "2025-12-25T19:13:10.238016", "MEAN_MOTION": 15.1718911, "ECCENTRICITY": 0.0003672, "INCLINATION": 97.4388, "RA_OF_ASC_NODE": 71.3186, "ARG_OF_PERICENTER": 247.3023, "MEAN_ANOMALY": 112.7822, "EPHEMERIS_TYPE": 0, "CLASSIFICATION_TYPE": "U", "NORAD_CAT_ID": 66729, "ELEMENT_SET_NO": 999, "REV_AT_EPOCH": 410, "BSTAR": 0.00047189, "MEAN_MOTION_DOT": 9.314e-05, "MEAN_MOTION_DDOT": 0}, "tle": {"line1": "1 66729U 25276BR  25359.80081294  .00009314  00000+0  47189-3 0  9996", "line2": "2 66729  97.4388  71.3186 0003672 247.3023 112.7822 15.17189110  4108"}}, "geometry": {"type": "Point", "coordinates": [-105.61637381520376, 19.91100321957258]}}, {"type": "Feature", "properties": {"norad_id": 66730, "name": "FLOCK 4H-27", "group": "last-30-days", "lat": -71.97404794698859, "lon": -131.9616976410932, "alt_km": 519.4141076307969, "timestamp": "2025-12-26T03:50:10.806962+00:00", "meta": {"OBJECT_NAME": "FLOCK 4H-27", "OBJECT_ID": "2025-276BS", "EPOCH": "2025-12-25T18:48:48.698208", "MEAN_MOTION": 15.1811885, "ECCENTRICITY": 0.0001379, "INCLINATION": 97.4366, "RA_OF_ASC_NODE": 71.3334, "ARG_OF_PERICENTER": 126.8131, "MEAN_ANOMALY": 233.3229, "EPHEMERIS_TYPE": 0, "CLASSIFICATION_TYPE": "U", "NORAD_CAT_ID": 66730, "ELEMENT_SET_NO": 999, "REV_AT_EPOCH": 410, "BSTAR": 0.00033943, "MEAN_MOTION_DOT": 6.859e-05, "MEAN_MOTION_DDOT": 0}, "tle": {"line1": "1 66730U 25276BS  25359.78389697  .00006859  00000+0  33943-3 0  9997", "line2": "2 66730  97.4366  71.3334 0001379 126.8131 233.3229 15.18118850  4109"}}, "geometry": {"type": "Point", "coordinates": [-131.9616976410932, -71.97404794698859]}}, {"type": "Feature", "properties": {"norad_id": 66731, "name": "FLOCK 4H-28", "group": "last-30-days", "lat": 18.3514372340816, "lon": -105.84899687918355, "alt_km": 514.6032398003745, "timestamp": "2025-12-26T03:50:10.806972+00:00", "meta": {"OBJECT_NAME": "FLOCK 4H-28", "OBJECT_ID": "2025-276BT", "EPOCH": "2025-12-25T14:27:49.974336", "MEAN_MOTION": 15.171733, "ECCENTRICITY": 0.0003263, "INCLINATION": 97.4376, "RA_OF_ASC_NODE": 71.1205, "ARG_OF_PERICENTER": 249.1184, "MEAN_ANOMALY": 110.9701, "EPHEMERIS_TYPE": 0, "CLASSIFICATION_TYPE": "U", "NORAD_CAT_ID": 66731, "ELEMENT_SET_NO": 999, "REV_AT_EPOCH": 407, "BSTAR": 0.00051679, "MEAN_MOTION_DOT": 0.00010203, "MEAN_MOTION_DDOT": 0}, "tle": {"line1": "1 66731U 25276BT  25359.60266174  .00010203  00000+0  51679-3 0  9997", "line2": "2 66731  97.4376  71.1205 0003263 249.1184 110.9701 15.17173300  4078"}}, "geometry": {"type": "Point", "coordinates": [-105.84899687918355, 18.3514372340816]}}, {"type": "Feature", "properties": {"norad_id": 66732, "name": "FLOCK 4H-29", "group": "last-30-days", "lat": 4.577113688807573, "lon": -107.73334887678352, "alt_km": 516.1549827860417, "timestamp": "2025-12-26T03:50:10.806982+00:00", "meta": {"OBJECT_NAME": "FLOCK 4H-29", "OBJECT_ID": "2025-276BU", "EPOCH": "2025-12-25T16:00:01.998720", "MEAN_MOTION": 15.17296277, "ECCENTRICITY": 0.0001938, "INCLINATION": 97.4368, "RA_OF_ASC_NODE": 71.1834, "ARG_OF_PERICENTER": 259.3991, "MEAN_ANOMALY": 103.798, "EPHEMERIS_TYPE": 0, "CLASSIFICATION_TYPE": "U", "NORAD_CAT_ID": 66732, "ELEMENT_SET_NO": 999, "REV_AT_EPOCH": 350, "BSTAR": 0.0025858, "MEAN_MOTION_DOT": 0.00051787, "MEAN_MOTION_DDOT": 0}, "tle": {"line1": "1 66732U 25276BU  25359.66668980  .00051787  00000+0  25858-2 0  9996", "line2": "2 66732  97.4368  71.1834 0001938 259.3991 103.7980 15.17296277  3509"}}, "geometry": {"type": "Point", "coordinates": [-107.73334887678352, 4.577113688807573]}}, {"type": "Feature", "properties": {"norad_id": 66733, "name": "FLOCK 4H-30", "group": "last-30-days", "lat": 11.086305667374006, "lon": -106.84082747111604, "alt_km": 515.1021047546637, "timestamp": "2025-12-26T03:50:10.806996+00:00", "meta": {"OBJECT_NAME": "FLOCK 4H-30", "OBJECT_ID": "2025-276BV", "EPOCH": "2025-12-25T20:00:01.999008", "MEAN_MOTION": 15.17318686, "ECCENTRICITY": 0.0003185, "INCLINATION": 97.4433, "RA_OF_ASC_NODE": 71.3705, "ARG_OF_PERICENTER": 247.3664, "MEAN_ANOMALY": 299.1175, "EPHEMERIS_TYPE": 0, "CLASSIFICATION_TYPE": "U", "NORAD_CAT_ID": 66733, "ELEMENT_SET_NO": 999, "REV_AT_EPOCH": 353, "BSTAR": -0.002524, "MEAN_MOTION_DOT": -0.00050016, "MEAN_MOTION_DDOT": 0}, "tle": {"line1": "1 66733U 25276BV  25359.83335647 -.00050016  00000+0 -25240-2 0  9998", "line2": "2 66733  97.4433  71.3705 0003185 247.3664 299.1175 15.17318686  3530"}}, "geometry": {"type": "Point", "coordinates": [-106.84082747111604, 11.086305667374006]}}, {"type": "Feature", "properties": {"norad_id": 66734, "name": "FLOCK 4H-31", "group": "last-30-days", "lat": 10.924593147409233, "lon": -106.88967872102647, "alt_km": 515.6980144035924, "timestamp": "2025-12-26T03:50:10.807006+00:00", "meta": {"OBJECT_NAME": "FLOCK 4H-31", "OBJECT_ID": "2025-276BW", "EPOCH": "2025-12-25T19:10:48.216288", "MEAN_MOTION": 15.17240873, "ECCENTRICITY": 0.0002538, "INCLINATION": 97.4365, "RA_OF_ASC_NODE": 71.3117, "ARG_OF_PERICENTER": 259.4055, "MEAN_ANOMALY": 100.6893, "EPHEMERIS_TYPE": 0, "CLASSIFICATION_TYPE": "U", "NORAD_CAT_ID": 66734, "ELEMENT_SET_NO": 999, "REV_AT_EPOCH": 410, "BSTAR": 0.00039504, "MEAN_MOTION_DOT": 7.796e-05, "MEAN_MOTION_DDOT": 0}, "tle": {"line1": "1 66734U 25276BW  25359.79916917  .00007796  00000+0  39504-3 0  9993", "line2": "2 66734  97.4365  71.3117 0002538 259.4055 100.6893 15.17240873  4100"}}, "geometry": {"type": "Point", "coordinates": [-106.88967872102647, 10.924593147409233]}}, {"type": "Feature", "properties": {"norad_id": 66735, "name": "FLOCK 4H-32", "group": "last-30-days", "lat": 12.964069822962026, "lon": -106.58885313164487, "alt_km": 514.7544826632184, "timestamp": "2025-12-26T03:50:10.807016+00:00", "meta": {"OBJECT_NAME": "FLOCK 4H-32", "OBJECT_ID": "2025-276BX", "EPOCH": "2025-12-25T19:11:21.043968", "MEAN_MOTION": 15.1726855, "ECCENTRICITY": 0.0003592, "INCLINATION": 97.4423, "RA_OF_ASC_NODE": 71.3328, "ARG_OF_PERICENTER": 244.7814, "MEAN_ANOMALY": 115.3047, "EPHEMERIS_TYPE": 0, "CLASSIFICATION_TYPE": "U", "NORAD_CAT_ID": 66735, "ELEMENT_SET_NO": 999, "REV_AT_EPOCH": 410, "BSTAR": 0.00052881, "MEAN_MOTION_DOT": 0.00010471, "MEAN_MOTION_DDOT": 0}, "tle": {"line1": "1 66735U 25276BX  25359.79954912  .00010471  00000+0  52881-3 0  9998", "line2": "2 66735  97.4423  71.3328 0003592 244.7814 115.3047 15.17268550  4107"}}, "geometry": {"type": "Point", "coordinates": [-106.58885313164487, 12.964069822962026]}}, {"type": "Feature", "properties": {"norad_id": 66736, "name": "FLOCK 4H-33", "group": "last-30-days", "lat": -82.54761041656029, "lon": 159.5642620368002, "alt_km": 519.1772662957419, "timestamp": "2025-12-26T03:50:10.807026+00:00", "meta": {"OBJECT_NAME": "FLOCK 4H-33", "OBJECT_ID": "2025-276BY", "EPOCH": "2025-12-25T17:09:34.106112", "MEAN_MOTION": 15.18334704, "ECCENTRICITY": 0.000279, "INCLINATION": 97.442, "RA_OF_ASC_NODE": 71.2923, "ARG_OF_PERICENTER": 151.7464, "MEAN_ANOMALY": 208.3922, "EPHEMERIS_TYPE": 0, "CLASSIFICATION_TYPE": "U", "NORAD_CAT_ID": 66736, "ELEMENT_SET_NO": 999, "REV_AT_EPOCH": 409, "BSTAR": 0.00053563, "MEAN_MOTION_DOT": 0.00010937, "MEAN_MOTION_DDOT": 0}, "tle": {"line1": "1 66736U 25276BY  25359.71497808  .00010937  00000+0  53563-3 0  9992", "line2": "2 66736  97.4420  71.2923 0002790 151.7464 208.3922 15.18334704  4091"}}, "geometry": {"type": "Point", "coordinates": [159.5642620368002, -82.54761041656029]}}]}